*******************************************************************************
Ephemeris / WWW_USER Thu Mar 11 18:48:36 2021 Pasadena, USA      / Horizons
*******************************************************************************
Target body name: Mercury (199)                   {source: DE431mx}
Center body name: Sun (10)                        {source: DE431mx}
Center-site name: BODY CENTER
*******************************************************************************
Start time      : A.D. 2000-Feb-15 00:00:00.0000 TDB
Stop  time      : A.D. 2000-Feb-17 00:00:00.0000 TDB
Step-size       : 1 minutes
*******************************************************************************
Center geodetic : 0.00000000,0.00000000,0.0000000 {E-lon(deg),Lat(deg),Alt(km)}
Center cylindric: 0.00000000,0.00000000,0.0000000 {E-lon(deg),Dxy(km),Dz(km)}
Center radii    : 696000.0 x 696000.0 x 696000.0 k{Equator, meridian, pole}    
Output units    : KM-S
Output type     : GEOMETRIC cartesian states
Output format   : 1 (position only)
Reference frame : Ecliptic of J2000.0
*******************************************************************************
            JDTDB,            Calendar Date (TDB),                      X,                      Y,                      Z,
**************************************************************************************************************************
$$SOE
2451589.931250000, A.D. 2000-Feb-15 10:21:00.0000,  1.171912174877709E+07,  4.441536571317407E+07,  2.552656719784485E+06,
2451589.931944444, A.D. 2000-Feb-15 10:22:00.0000,  1.171570992836397E+07,  4.441622131244895E+07,  2.553039769354546E+06,
2451589.932638889, A.D. 2000-Feb-15 10:23:00.0000,  1.171229805046896E+07,  4.441707669380002E+07,  2.553422806398354E+06,
2451589.933333333, A.D. 2000-Feb-15 10:24:00.0000,  1.170888611510870E+07,  4.441793185722279E+07,  2.553805830914019E+06,
2451589.934027778, A.D. 2000-Feb-15 10:25:00.0000,  1.170547412229987E+07,  4.441878680271275E+07,  2.554188842899634E+06,
2451589.934722222, A.D. 2000-Feb-15 10:26:00.0000,  1.170206207205911E+07,  4.441964153026540E+07,  2.554571842353318E+06,
2451589.935416667, A.D. 2000-Feb-15 10:27:00.0000,  1.169864996440310E+07,  4.442049603987624E+07,  2.554954829273161E+06,
2451589.936111111, A.D. 2000-Feb-15 10:28:00.0000,  1.169523779934848E+07,  4.442135033154078E+07,  2.555337803657265E+06,
2451589.936805556, A.D. 2000-Feb-15 10:29:00.0000,  1.169182557691193E+07,  4.442220440525451E+07,  2.555720765503746E+06,
2451589.937500000, A.D. 2000-Feb-15 10:30:00.0000,  1.168841329711010E+07,  4.442305826101296E+07,  2.556103714810692E+06,
2451589.938194444, A.D. 2000-Feb-15 10:31:00.0000,  1.168500095995966E+07,  4.442391189881160E+07,  2.556486651576225E+06,
2451589.938888889, A.D. 2000-Feb-15 10:32:00.0000,  1.168158856547727E+07,  4.442476531864598E+07,  2.556869575798430E+06,
2451589.939583333, A.D. 2000-Feb-15 10:33:00.0000,  1.167817611367960E+07,  4.442561852051158E+07,  2.557252487475419E+06,
2451589.940277778, A.D. 2000-Feb-15 10:34:00.0000,  1.167476360458330E+07,  4.442647150440393E+07,  2.557635386605302E+06,
2451589.940972222, A.D. 2000-Feb-15 10:35:00.0000,  1.167135103820504E+07,  4.442732427031855E+07,  2.558018273186168E+06,
2451589.941666667, A.D. 2000-Feb-15 10:36:00.0000,  1.166793841456149E+07,  4.442817681825094E+07,  2.558401147216145E+06,
2451589.942361111, A.D. 2000-Feb-15 10:37:00.0000,  1.166452573366931E+07,  4.442902914819662E+07,  2.558784008693306E+06,
2451589.943055556, A.D. 2000-Feb-15 10:38:00.0000,  1.166111299554517E+07,  4.442988126015111E+07,  2.559166857615780E+06,
2451589.943750000, A.D. 2000-Feb-15 10:39:00.0000,  1.165770020020573E+07,  4.443073315410995E+07,  2.559549693981659E+06,
2451589.944444444, A.D. 2000-Feb-15 10:40:00.0000,  1.165428734766767E+07,  4.443158483006864E+07,  2.559932517789058E+06,
2451589.945138889, A.D. 2000-Feb-15 10:41:00.0000,  1.165087443794764E+07,  4.443243628802270E+07,  2.560315329036072E+06,
2451589.945833333, A.D. 2000-Feb-15 10:42:00.0000,  1.164746147106232E+07,  4.443328752796768E+07,  2.560698127720809E+06,
2451589.946527778, A.D. 2000-Feb-15 10:43:00.0000,  1.164404844702838E+07,  4.443413854989910E+07,  2.561080913841374E+06,
2451589.947222222, A.D. 2000-Feb-15 10:44:00.0000,  1.164063536586248E+07,  4.443498935381249E+07,  2.561463687395871E+06,
2451589.947916667, A.D. 2000-Feb-15 10:45:00.0000,  1.163722222758130E+07,  4.443583993970338E+07,  2.561846448382409E+06,
2451589.948611111, A.D. 2000-Feb-15 10:46:00.0000,  1.163380903220150E+07,  4.443669030756729E+07,  2.562229196799081E+06,
2451589.949305556, A.D. 2000-Feb-15 10:47:00.0000,  1.163039577973975E+07,  4.443754045739977E+07,  2.562611932644008E+06,
2451589.950000000, A.D. 2000-Feb-15 10:48:00.0000,  1.162698247021273E+07,  4.443839038919636E+07,  2.562994655915285E+06,
2451589.950694445, A.D. 2000-Feb-15 10:49:00.0000,  1.162356910363710E+07,  4.443924010295260E+07,  2.563377366611024E+06,
2451589.951388889, A.D. 2000-Feb-15 10:50:00.0000,  1.162015568002955E+07,  4.444008959866401E+07,  2.563760064729327E+06,
2451589.952083333, A.D. 2000-Feb-15 10:51:00.0000,  1.161674219940674E+07,  4.444093887632614E+07,  2.564142750268294E+06,
2451589.952777778, A.D. 2000-Feb-15 10:52:00.0000,  1.161332866178533E+07,  4.444178793593456E+07,  2.564525423226040E+06,
2451589.953472222, A.D. 2000-Feb-15 10:53:00.0000,  1.160991506718202E+07,  4.444263677748479E+07,  2.564908083600661E+06,
2451589.954166667, A.D. 2000-Feb-15 10:54:00.0000,  1.160650141561347E+07,  4.444348540097237E+07,  2.565290731390273E+06,
2451589.954861111, A.D. 2000-Feb-15 10:55:00.0000,  1.160308770709636E+07,  4.444433380639286E+07,  2.565673366592981E+06,
2451589.955555555, A.D. 2000-Feb-15 10:56:00.0000,  1.159967394164735E+07,  4.444518199374183E+07,  2.566055989206880E+06,
2451589.956250000, A.D. 2000-Feb-15 10:57:00.0000,  1.159626011928313E+07,  4.444602996301479E+07,  2.566438599230090E+06,
2451589.956944444, A.D. 2000-Feb-15 10:58:00.0000,  1.159284624002038E+07,  4.444687771420734E+07,  2.566821196660705E+06,
2451589.957638889, A.D. 2000-Feb-15 10:59:00.0000,  1.158943230387576E+07,  4.444772524731500E+07,  2.567203781496843E+06,
2451589.958333333, A.D. 2000-Feb-15 11:00:00.0000,  1.158601831086596E+07,  4.444857256233334E+07,  2.567586353736598E+06,
2451589.959027778, A.D. 2000-Feb-15 11:01:00.0000,  1.158260426100765E+07,  4.444941965925792E+07,  2.567968913378086E+06,
2451589.959722222, A.D. 2000-Feb-15 11:02:00.0000,  1.157919015431751E+07,  4.445026653808430E+07,  2.568351460419411E+06,
2451589.960416667, A.D. 2000-Feb-15 11:03:00.0000,  1.157577599081222E+07,  4.445111319880805E+07,  2.568733994858678E+06,
2451589.961111111, A.D. 2000-Feb-15 11:04:00.0000,  1.157236177050846E+07,  4.445195964142472E+07,  2.569116516693996E+06,
2451589.961805556, A.D. 2000-Feb-15 11:05:00.0000,  1.156894749342290E+07,  4.445280586592989E+07,  2.569499025923470E+06,
2451589.962500000, A.D. 2000-Feb-15 11:06:00.0000,  1.156553315957223E+07,  4.445365187231912E+07,  2.569881522545207E+06,
2451589.963194444, A.D. 2000-Feb-15 11:07:00.0000,  1.156211876897313E+07,  4.445449766058797E+07,  2.570264006557316E+06,
2451589.963888889, A.D. 2000-Feb-15 11:08:00.0000,  1.155870432164228E+07,  4.445534323073202E+07,  2.570646477957906E+06,
2451589.964583333, A.D. 2000-Feb-15 11:09:00.0000,  1.155528981759636E+07,  4.445618858274686E+07,  2.571028936745081E+06,
2451589.965277778, A.D. 2000-Feb-15 11:10:00.0000,  1.155187525685205E+07,  4.445703371662805E+07,  2.571411382916940E+06,
2451589.965972222, A.D. 2000-Feb-15 11:11:00.0000,  1.154846063942604E+07,  4.445787863237116E+07,  2.571793816471605E+06,
2451589.966666667, A.D. 2000-Feb-15 11:12:00.0000,  1.154504596533500E+07,  4.445872332997178E+07,  2.572176237407174E+06,
2451589.967361111, A.D. 2000-Feb-15 11:13:00.0000,  1.154163123459562E+07,  4.445956780942547E+07,  2.572558645721763E+06,
2451589.968055556, A.D. 2000-Feb-15 11:14:00.0000,  1.153821644722458E+07,  4.446041207072783E+07,  2.572941041413471E+06,
2451589.968750000, A.D. 2000-Feb-15 11:15:00.0000,  1.153480160323858E+07,  4.446125611387444E+07,  2.573323424480416E+06,
2451589.969444444, A.D. 2000-Feb-15 11:16:00.0000,  1.153138670265428E+07,  4.446209993886088E+07,  2.573705794920690E+06,
2451589.970138889, A.D. 2000-Feb-15 11:17:00.0000,  1.152797174548839E+07,  4.446294354568275E+07,  2.574088152732419E+06,
2451589.970833333, A.D. 2000-Feb-15 11:18:00.0000,  1.152455673175758E+07,  4.446378693433562E+07,  2.574470497913700E+06,
2451589.971527778, A.D. 2000-Feb-15 11:19:00.0000,  1.152114166147854E+07,  4.446463010481510E+07,  2.574852830462648E+06,
2451589.972222222, A.D. 2000-Feb-15 11:20:00.0000,  1.151772653466795E+07,  4.446547305711675E+07,  2.575235150377354E+06,
2451589.972916667, A.D. 2000-Feb-15 11:21:00.0000,  1.151431135134252E+07,  4.446631579123620E+07,  2.575617457655950E+06,
2451589.973611111, A.D. 2000-Feb-15 11:22:00.0000,  1.151089611151891E+07,  4.446715830716902E+07,  2.575999752296530E+06,
2451589.974305556, A.D. 2000-Feb-15 11:23:00.0000,  1.150748081521382E+07,  4.446800060491081E+07,  2.576382034297213E+06,
2451589.975000000, A.D. 2000-Feb-15 11:24:00.0000,  1.150406546244394E+07,  4.446884268445720E+07,  2.576764303656094E+06,
2451589.975694444, A.D. 2000-Feb-15 11:25:00.0000,  1.150065005322596E+07,  4.446968454580375E+07,  2.577146560371287E+06,
2451589.976388889, A.D. 2000-Feb-15 11:26:00.0000,  1.149723458757657E+07,  4.447052618894607E+07,  2.577528804440916E+06,
2451589.977083333, A.D. 2000-Feb-15 11:27:00.0000,  1.149381906551246E+07,  4.447136761387978E+07,  2.577911035863061E+06,
2451589.977777778, A.D. 2000-Feb-15 11:28:00.0000,  1.149040348705031E+07,  4.447220882060048E+07,  2.578293254635857E+06,
2451589.978472222, A.D. 2000-Feb-15 11:29:00.0000,  1.148698785220683E+07,  4.447304980910377E+07,  2.578675460757401E+06,
